IRIDIUM 106             
1 41917U 17003A   26166.83965533  .00000012  00000+0 -27634-5 0  9996
2 41917  86.3962  89.1196 0001756  84.7247 275.4149 14.34217488493014
IRIDIUM 103             
1 41918U 17003B   26166.82697083  .00000075  00000+0  19622-4 0  9993
2 41918  86.3963  89.0247 0002330  78.1331 282.0126 14.34217864493031
IRIDIUM 109             
1 41919U 17003C   26166.83331376  .00000002  00000+0 -63372-5 0  9998
2 41919  86.3962  89.0815 0002150  82.7324 277.4116 14.34217412493008
IRIDIUM 102             
1 41920U 17003D   26166.87136809  .00000102  00000+0  29310-4 0  9991
2 41920  86.3961  88.9891 0002225  86.0786 274.0664 14.34218365493091
IRIDIUM 105             
1 41921U 17003E   26166.76019787  .00000183  00000+0  58373-4 0  9995
2 41921  86.3966  57.4670 0002503  83.1915 276.9566 14.34219264494939
IRIDIUM 104             
1 41922U 17003F   26166.81428617  .00000039  00000+0  67845-5 0  9993
2 41922  86.3963  89.0556 0002473  80.7716 279.3760 14.34217743493076
IRIDIUM 114             
1 41923U 17003G   26166.82062831  .00000051  00000+0  11089-4 0  9999
2 41923  86.3963  89.0361 0002330  80.9491 279.1968 14.34217841493050
IRIDIUM 108             
1 41924U 17003H   26166.77914796  .00000133  00000+0  40383-4 0  9990
2 41924  86.3960  57.3492 0002229  86.4261 273.7189 14.34218676494901
IRIDIUM 112             
1 41925U 17003J   26166.87771207  .00000038  00000+0  64483-5 0  9992
2 41925  86.3960  88.8544 0002338  83.6067 276.5395 14.34217514493081
IRIDIUM 111             
1 41926U 17003K   26166.86503545  .00000215  00000+0  69759-4 0  9997
2 41926  86.3960  88.9301 0002253  82.6778 277.4674 14.34217339493061
IRIDIUM 113             
1 42803U 17039A   26166.91475926  .00000025  00000+0  19461-5 0  9993
2 42803  86.3968 322.7106 0002271  89.3085 270.8371 14.34217758471007
IRIDIUM 123             
1 42804U 17039B   26166.88646824  .00000111  00000+0  32629-4 0  9993
2 42804  86.3971 354.1809 0002000  85.3912 274.7512 14.34217957469767
IRIDIUM 120             
1 42805U 17039C   26166.90841485  .00000207  00000+0  66755-4 0  9990
2 42805  86.3958 322.4959 0002013  94.8843 265.2583 14.34216107470995
IRIDIUM 115             
1 42806U 17039D   26166.93994086  .00000162  00000+0  42305-4 0  9995
2 42806  86.4494 322.6112 0001981  90.0396 270.1032 14.43282535474085
IRIDIUM 118             
1 42807U 17039E   26166.91817945  .00000151  00000+0  46981-4 0  9994
2 42807  86.3971 354.1659 0002186  88.4992 271.6454 14.34219148469765
IRIDIUM 117             
1 42808U 17039F   26166.93720930  .00000004  00000+0 -54834-5 0  9999
2 42808  86.3969 354.1157 0002003  86.7792 273.3633 14.34217697469791
IRIDIUM 126             
1 42809U 17039G   26166.89280982  .00000197  00000+0  63168-4 0  9994
2 42809  86.3970 354.1853 0002214  85.2857 274.8591 14.34219017469761
IRIDIUM 124             
1 42810U 17039H   26166.87376484  .00000270  00000+0  74366-4 0  9991
2 42810  86.4481 290.9079 0002177  93.1038 267.0412 14.43281585474924
IRIDIUM 128             
1 42811U 17039J   26166.67424389  .00000058  00000+0  13825-4 0  9995
2 42811  86.3968  25.7830 0001994  87.6117 272.5307 14.34218012469760
IRIDIUM 121             
1 42812U 17039K   26166.91183836  .00000142  00000+0  43509-4 0  9998
2 42812  86.3972 354.2050 0002114  90.8479 269.2959 14.34218593469649
IRIDIUM 133             
1 42955U 17061A   26166.84549345  .00000040  00000+0  71857-5 0  9999
2 42955  86.3970  25.8290 0002098  86.0059 274.1376 14.34217104454586
IRIDIUM 100             
1 42956U 17061B   26166.69961349  .00000084  00000+0  22892-4 0  9997
2 42956  86.3968  25.8088 0002160  87.1226 273.0217 14.34216972454569
IRIDIUM 122             
1 42957U 17061C   26166.66790191  .00000054  00000+0  12383-4 0  9991
2 42957  86.3968  25.8221 0002170  83.5327 276.6116 14.34217801454561
IRIDIUM 129             
1 42958U 17061D   26166.97234666 -.00000039  00000+0 -20992-4 0  9996
2 42958  86.3966  25.7618 0002301  85.1856 274.9603 14.34217421454627
IRIDIUM 119             
1 42959U 17061E   26166.87086462  .00000019  00000+0 -17482-6 0  9994
2 42959  86.3967  25.8000 0002109  83.5211 276.6224 14.34217684454627
IRIDIUM 107             
1 42960U 17061F   26166.88989113  .00000149  00000+0  46256-4 0  9994
2 42960  86.3971  25.8135 0001971  81.9205 278.2214 14.34218541454635
IRIDIUM 132             
1 42961U 17061G   26166.89623547  .00000054  00000+0  12109-4 0  9997
2 42961  86.3969  25.7903 0002172  85.0614 275.0830 14.34217539454633
IRIDIUM 136             
1 42962U 17061H   26166.64888400  .00000186  00000+0  59514-4 0  9999
2 42962  86.3970  25.9003 0002177  88.2148 271.9297 14.34218969454619
IRIDIUM 139             
1 42963U 17061J   26166.86452157  .00000087  00000+0  23906-4 0  9996
2 42963  86.3970  25.8721 0002076  87.2287 272.9146 14.34218189454659
IRIDIUM 125             
1 42964U 17061K   26166.92160986  .00000112  00000+0  32902-4 0  9995
2 42964  86.3973  25.9092 0002232  73.1864 286.9576 14.34213785454675
